<gpx version="1.1" creator="test">
  <trk>
    <name>Nehrunagar → Vadaj (stop) → New Ranip</name>
    <trkseg>
      <!-- Start: Nehrunagar (Ahmedabad) -->
      <trkpt lat="23.011800" lon="72.532900"><time>2025-09-10T12:00:00Z</time></trkpt>
      <trkpt lat="23.017500" lon="72.540500"><time>2025-09-10T12:02:00Z</time></trkpt>
      <trkpt lat="23.028000" lon="72.550500"><time>2025-09-10T12:04:00Z</time></trkpt>
      <trkpt lat="23.040500" lon="72.559000"><time>2025-09-10T12:06:00Z</time></trkpt>
      <trkpt lat="23.050000" lon="72.565000"><time>2025-09-10T12:08:00Z</time></trkpt>
      <!-- Arrive near Vadaj (Ahmedabad) -->
      <trkpt lat="23.058000" lon="72.571000"><time>2025-09-10T12:10:00Z</time></trkpt>
      <!-- Stop around ~50m radius for ~2 minutes to trigger stop detection -->
      <trkpt lat="23.058020" lon="72.571020"><time>2025-09-10T12:10:30Z</time></trkpt>
      <trkpt lat="23.058010" lon="72.571000"><time>2025-09-10T12:11:00Z</time></trkpt>
      <trkpt lat="23.058015" lon="72.571015"><time>2025-09-10T12:11:30Z</time></trkpt>
      <trkpt lat="23.058000" lon="72.571000"><time>2025-09-10T12:12:00Z</time></trkpt>
      <!-- Resume towards New Ranip (Ahmedabad) -->
      <trkpt lat="23.066000" lon="72.570000"><time>2025-09-10T12:13:00Z</time></trkpt>
      <trkpt lat="23.075000" lon="72.568500"><time>2025-09-10T12:14:30Z</time></trkpt>
      <trkpt lat="23.083000" lon="72.567500"><time>2025-09-10T12:16:00Z</time></trkpt>
      <trkpt lat="23.088500" lon="72.566700"><time>2025-09-10T12:17:30Z</time></trkpt>
      <!-- End: New Ranip (Ahmedabad) -->
      <trkpt lat="23.091800" lon="72.566000"><time>2025-09-10T12:19:00Z</time></trkpt>
    </trkseg>
  </trk>
</gpx>



